{"type": "FeatureCollection", "features": [ {"type": "Feature", "properties": {"norad_id": 33747, "name": "FENGYUN 1C DEB", "group": "fengyun-1c-debris", "lat": 52.583828870900284, "lon": 64.33385987614729, "alt_km": 894.1251326168376, "timestamp": "2025-12-07T20:38:14.350697+00:00", "meta": {"OBJECT_NAME": "FENGYUN 1C DEB", "OBJECT_ID": "1999-025DJL", "EPOCH": "2025-12-07T00:03:01.560960", "MEAN_MOTION": 14.17338054, "ECCENTRICITY": 0.00899301, "INCLINATION": 99.098, "RA_OF_ASC_NODE": 75.547, "ARG_OF_PERICENTER": 232.9564, "MEAN_ANOMALY": 126.336, "EPHEMERIS_TYPE": 0, "CLASSIFICATION_TYPE": "U", "NORAD_CAT_ID": 33747, "ELEMENT_SET_NO": 999, "REV_AT_EPOCH": 90051, "BSTAR": 0.0039970984, "MEAN_MOTION_DOT": 8.373e-05, "MEAN_MOTION_DDOT": 0}, "tle": {"line1": "1 33747U 99025DJL 25341.00210140  .00008373  00000+0  39971-2 0  9993", "line2": "2 33747  99.0980  75.5470 0089930 232.9564 126.3360 14.17338054900511"}}, "geometry": {"type": "Point", "coordinates": [64.33385987614729, 52.583828870900284]}}, {"type": "Feature", "properties": {"norad_id": 33748, "name": "FENGYUN 1C DEB", "group": "fengyun-1c-debris", "lat": 8.571294072351572, "lon": -145.6324974213673, "alt_km": 783.5946345555913, "timestamp": "2025-12-07T20:38:14.350707+00:00", "meta": {"OBJECT_NAME": "FENGYUN 1C DEB", "OBJECT_ID": "1999-025DJM", "EPOCH": "2025-12-06T10:18:12.356352", "MEAN_MOTION": 14.32218901, "ECCENTRICITY": 0.00343533, "INCLINATION": 98.587, "RA_OF_ASC_NODE": 31.6464, "ARG_OF_PERICENTER": 259.9904, "MEAN_ANOMALY": 99.7402, "EPHEMERIS_TYPE": 0, "CLASSIFICATION_TYPE": "U", "NORAD_CAT_ID": 33748, "ELEMENT_SET_NO": 999, "REV_AT_EPOCH": 91303, "BSTAR": 0.0024683639, "MEAN_MOTION_DOT": 6.657e-05, "MEAN_MOTION_DDOT": 0}, "tle": {"line1": "1 33748U 99025DJM 25340.42930968  .00006657  00000+0  24684-2 0  9994", "line2": "2 33748  98.5870  31.6464 0034353 259.9904  99.7402 14.32218901913032"}}, "geometry": {"type": "Point", "coordinates": [-145.6324974213673, 8.571294072351572]}}, {"type": "Feature", "properties": {"norad_id": 35088, "name": "FENGYUN 1C DEB", "group": "fengyun-1c-debris", "lat": -69.05254724800426, "lon": -32.41319537536432, "alt_km": 693.05048114293, "timestamp": "2025-12-07T20:38:14.350717+00:00", "meta": {"OBJECT_NAME": "FENGYUN 1C DEB", "OBJECT_ID": "1999-025DJQ", "EPOCH": "2025-12-05T18:07:13.251936", "MEAN_MOTION": 14.11541767, "ECCENTRICITY": 0.0269112, "INCLINATION": 94.6213, "RA_OF_ASC_NODE": 158.6962, "ARG_OF_PERICENTER": 224.9702, "MEAN_ANOMALY": 132.9405, "EPHEMERIS_TYPE": 0, "CLASSIFICATION_TYPE": "U", "NORAD_CAT_ID": 35088, "ELEMENT_SET_NO": 999, "REV_AT_EPOCH": 58701, "BSTAR": 0.013442762, "MEAN_MOTION_DOT": 0.00034432, "MEAN_MOTION_DDOT": 0}, "tle": {"line1": "1 35088U 99025DJQ 25339.75501449  .00034432  00000+0  13443-1 0  9997", "line2": "2 35088  94.6213 158.6962 0269112 224.9702 132.9405 14.11541767587017"}}, "geometry": {"type": "Point", "coordinates": [-32.41319537536432, -69.05254724800426]}}, {"type": "Feature", "properties": {"norad_id": 35089, "name": "FENGYUN 1C DEB", "group": "fengyun-1c-debris", "lat": 19.7370320357521, "lon": -11.233863780662322, "alt_km": 816.3580276708208, "timestamp": "2025-12-07T20:38:14.350727+00:00", "meta": {"OBJECT_NAME": "FENGYUN 1C DEB", "OBJECT_ID": "1999-025DJR", "EPOCH": "2025-12-05T17:47:21.264576", "MEAN_MOTION": 14.19392682, "ECCENTRICITY": 0.00293681, "INCLINATION": 98.5595, "RA_OF_ASC_NODE": 349.8165, "ARG_OF_PERICENTER": 84.7975, "MEAN_ANOMALY": 275.6552, "EPHEMERIS_TYPE": 0, "CLASSIFICATION_TYPE": "U", "NORAD_CAT_ID": 35089, "ELEMENT_SET_NO": 999, "REV_AT_EPOCH": 60776, "BSTAR": 0.00072532706, "MEAN_MOTION_DOT": 1.49e-05, "MEAN_MOTION_DDOT": 0}, "tle": {"line1": "1 35089U 99025DJR 25339.74121834  .00001490  00000+0  72533-3 0  9998", "line2": "2 35089  98.5595 349.8165 0029368  84.7975 275.6552 14.19392682607765"}}, "geometry": {"type": "Point", "coordinates": [-11.233863780662322, 19.7370320357521]}}, {"type": "Feature", "properties": {"norad_id": 35090, "name": "FENGYUN 1C DEB", "group": "fengyun-1c-debris", "lat": 12.65616606432986, "lon": -7.701278806184421, "alt_km": 795.4974047689884, "timestamp": "2025-12-07T20:38:14.350737+00:00", "meta": {"OBJECT_NAME": "FENGYUN 1C DEB", "OBJECT_ID": "1999-025DJS", "EPOCH": "2025-11-28T11:16:09.482016", "MEAN_MOTION": 14.17474979, "ECCENTRICITY": 0.00568935, "INCLINATION": 99.1993, "RA_OF_ASC_NODE": 344.6679, "ARG_OF_PERICENTER": 56.1043, "MEAN_ANOMALY": 304.5524, "EPHEMERIS_TYPE": 0, "CLASSIFICATION_TYPE": "U", "NORAD_CAT_ID": 35090, "ELEMENT_SET_NO": 999, "REV_AT_EPOCH": 66048, "BSTAR": 0.0014922384, "MEAN_MOTION_DOT": 3.028e-05, "MEAN_MOTION_DDOT": 0}, "tle": {"line1": "1 35090U 99025DJS 25332.46955419  .00003028  00000+0  14922-2 0  9992", "line2": "2 35090  99.1993 344.6679 0056893  56.1043 304.5524 14.17474979660488"}}, "geometry": {"type": "Point", "coordinates": [-7.701278806184421, 12.65616606432986]}}, {"type": "Feature", "properties": {"norad_id": 35091, "name": "FENGYUN 1C DEB", "group": "fengyun-1c-debris", "lat": -61.72499053927199, "lon": 102.29569524136369, "alt_km": 662.0678332524185, "timestamp": "2025-12-07T20:38:14.350746+00:00", "meta": {"OBJECT_NAME": "FENGYUN 1C DEB", "OBJECT_ID": "1999-025DJT", "EPOCH": "2025-12-07T06:07:58.962720", "MEAN_MOTION": 14.61338128, "ECCENTRICITY": 0.00486217, "INCLINATION": 98.5957, "RA_OF_ASC_NODE": 85.3355, "ARG_OF_PERICENTER": 308.794, "MEAN_ANOMALY": 50.8921, "EPHEMERIS_TYPE": 0, "CLASSIFICATION_TYPE": "U", "NORAD_CAT_ID": 35091, "ELEMENT_SET_NO": 999, "REV_AT_EPOCH": 89847, "BSTAR": 0.0040944973, "MEAN_MOTION_DOT": 0.00020578, "MEAN_MOTION_DDOT": 0}, "tle": {"line1": "1 35091U 99025DJT 25341.25554355  .00020578  00000+0  40945-2 0  9997", "line2": "2 35091  98.5957  85.3355 0048621 308.7940  50.8921 14.61338128898472"}}, "geometry": {"type": "Point", "coordinates": [102.29569524136369, -61.72499053927199]}}, {"type": "Feature", "properties": {"norad_id": 35102, "name": "FENGYUN 1C DEB", "group": "fengyun-1c-debris", "lat": -56.77864401632871, "lon": 5.443406577460515, "alt_km": 843.9020837124763, "timestamp": "2025-12-07T20:38:14.350756+00:00", "meta": {"OBJECT_NAME": "FENGYUN 1C DEB", "OBJECT_ID": "1999-025DKE", "EPOCH": "2025-11-24T18:37:30.315648", "MEAN_MOTION": 14.28809668, "ECCENTRICITY": 0.0059856, "INCLINATION": 98.4816, "RA_OF_ASC_NODE": 339.5496, "ARG_OF_PERICENTER": 144.8588, "MEAN_ANOMALY": 215.6565, "EPHEMERIS_TYPE": 0, "CLASSIFICATION_TYPE": "U", "NORAD_CAT_ID": 35102, "ELEMENT_SET_NO": 999, "REV_AT_EPOCH": 64656, "BSTAR": 0.00057863293, "MEAN_MOTION_DOT": 1.445e-05, "MEAN_MOTION_DDOT": 0}, "tle": {"line1": "1 35102U 99025DKE 25328.77604532  .00001445  00000+0  57863-3 0  9995", "line2": "2 35102  98.4816 339.5496 0059856 144.8588 215.6565 14.28809668646568"}}, "geometry": {"type": "Point", "coordinates": [5.443406577460515, -56.77864401632871]}}, {"type": "Feature", "properties": {"norad_id": 35104, "name": "FENGYUN 1C DEB", "group": "fengyun-1c-debris", "lat": -73.997795968688, "lon": 136.8669866012461, "alt_km": 836.033851453748, "timestamp": "2025-12-07T20:38:14.350766+00:00", "meta": {"OBJECT_NAME": "FENGYUN 1C DEB", "OBJECT_ID": "1999-025DKG", "EPOCH": "2025-12-06T18:54:45.260640", "MEAN_MOTION": 14.20313369, "ECCENTRICITY": 0.00310538, "INCLINATION": 98.5964, "RA_OF_ASC_NODE": 347.6591, "ARG_OF_PERICENTER": 157.8508, "MEAN_ANOMALY": 20.7382, "EPHEMERIS_TYPE": 0, "CLASSIFICATION_TYPE": "U", "NORAD_CAT_ID": 35104, "ELEMENT_SET_NO": 999, "REV_AT_EPOCH": 89682, "BSTAR": 0.00068235303, "MEAN_MOTION_DOT": 1.425e-05, "MEAN_MOTION_DDOT": 0}, "tle": {"line1": "1 35104U 99025DKG 25340.78802385  .00001425  00000+0  68235-3 0  9991", "line2": "2 35104  98.5964 347.6591 0031053 157.8508  20.7382 14.20313369896824"}}, "geometry": {"type": "Point", "coordinates": [136.8669866012461, -73.997795968688]}}, {"type": "Feature", "properties": {"norad_id": 35105, "name": "FENGYUN 1C DEB", "group": "fengyun-1c-debris", "lat": -34.731058324842074, "lon": 136.38335518165817, "alt_km": 813.6292062167304, "timestamp": "2025-12-07T20:38:14.350776+00:00", "meta": {"OBJECT_NAME": "FENGYUN 1C DEB", "OBJECT_ID": "1999-025DKH", "EPOCH": "2025-12-07T04:42:03.792672", "MEAN_MOTION": 14.45355121, "ECCENTRICITY": 0.01129218, "INCLINATION": 98.9426, "RA_OF_ASC_NODE": 321.9509, "ARG_OF_PERICENTER": 70.8399, "MEAN_ANOMALY": 290.4974, "EPHEMERIS_TYPE": 0, "CLASSIFICATION_TYPE": "U", "NORAD_CAT_ID": 35105, "ELEMENT_SET_NO": 999, "REV_AT_EPOCH": 94413, "BSTAR": 0.00061034487, "MEAN_MOTION_DOT": 2.268e-05, "MEAN_MOTION_DDOT": 0}, "tle": {"line1": "1 35105U 99025DKH 25341.19587723  .00002268  00000+0  61034-3 0  9990", "line2": "2 35105  98.9426 321.9509 0112921  70.8399 290.4974 14.45355121944132"}}, "geometry": {"type": "Point", "coordinates": [136.38335518165817, -34.731058324842074]}}, {"type": "Feature", "properties": {"norad_id": 35108, "name": "FENGYUN 1C DEB", "group": "fengyun-1c-debris", "lat": 38.42263166092991, "lon": 164.6803469900278, "alt_km": 826.4169178589736, "timestamp": "2025-12-07T20:38:14.350786+00:00", "meta": {"OBJECT_NAME": "FENGYUN 1C DEB", "OBJECT_ID": "1999-025DKL", "EPOCH": "2025-11-17T16:56:54.235392", "MEAN_MOTION": 14.06875481, "ECCENTRICITY": 0.01346692, "INCLINATION": 98.7997, "RA_OF_ASC_NODE": 318.0085, "ARG_OF_PERICENTER": 131.4741, "MEAN_ANOMALY": 229.8083, "EPHEMERIS_TYPE": 0, "CLASSIFICATION_TYPE": "U", "NORAD_CAT_ID": 35108, "ELEMENT_SET_NO": 999, "REV_AT_EPOCH": 88886, "BSTAR": 0.00053903391, "MEAN_MOTION_DOT": 9.33e-06, "MEAN_MOTION_DDOT": 0}, "tle": {"line1": "1 35108U 99025DKL 25321.70618328  .00000933  00000+0  53903-3 0  9997", "line2": "2 35108  98.7997 318.0085 0134669 131.4741 229.8083 14.06875481888867"}}, "geometry": {"type": "Point", "coordinates": [164.6803469900278, 38.42263166092991]}}]}